[{"OBJECT_NAME":"IRIDIUM 162","OBJECT_ID":"2018-047G","EPOCH":"2026-03-09T16:09:02.112768","MEAN_MOTION":14.43274905,"ECCENTRICITY":0.0002109,"INCLINATION":86.4501,"RA_OF_ASC_NODE":129.9826,"ARG_OF_PERICENTER":95.166,"MEAN_ANOMALY":264.9782,"EPHEMERIS_TYPE":0,"CLASSIFICATION_TYPE":"U","NORAD_CAT_ID":43482,"ELEMENT_SET_NO":999,"REV_AT_EPOCH":41077,"BSTAR":7.0339294e-5,"MEAN_MOTION_DOT":2.57e-6,"MEAN_MOTION_DDOT":0},{"OBJECT_NAME":"FENGYUN 1C DEB","OBJECT_ID":"1999-025DEL","EPOCH":"2026-03-09T08:32:27.275136","MEAN_MOTION":14.20430319,"ECCENTRICITY":0.01174496,"INCLINATION":98.6423,"RA_OF_ASC_NODE":117.0738,"ARG_OF_PERICENTER":163.0015,"MEAN_ANOMALY":197.5149,"EPHEMERIS_TYPE":0,"CLASSIFICATION_TYPE":"U","NORAD_CAT_ID":33651,"ELEMENT_SET_NO":999,"REV_AT_EPOCH":65501,"BSTAR":0.00017302126,"MEAN_MOTION_DOT":3.55e-6,"MEAN_MOTION_DDOT":0}]
